UNKNOWN                 
1 82227U          22363.41926212  .00000111  00000+0  11317-2 0  9991
2 82227 101.9037 331.1323 0003596 311.0921 204.5334 12.42018903507160
UNKNOWN                 
1 82250U          22343.19338444  .00003553  00000+0  22792-2 0  9996
2 82250  98.9416 245.7401 0084121  34.4738 122.3845 14.02162805569727
UNKNOWN                 
1 82272U          22363.98335710  .00000635  00000+0  21495-2 0  9999
2 82272  67.5253 352.4079 0754588  75.9495 292.4149 12.32343218138953
UNKNOWN                 
1 82284U          22363.98718091  .00009718  00000+0  34535-2 0  9999
2 82284  99.5665 195.5844 0102273 308.8593  50.3495 14.31698992516890
UNKNOWN                 
1 82285U          22364.48640806  .00004019  00000+0  39874-2 0  9994
2 82285 101.9927 201.3263 0335039 137.0146 225.7686 13.56960162448784
UNKNOWN                 
1 82295U          22337.91375800  .00000669  00000+0  28473-3 0  9993
2 82295  66.6208 162.2245 0137049 280.6045  77.9640 14.26355451 22325
UNKNOWN                 
1 82303U          22363.19510712  .00004729  00000+0  95372-2 0  9997
2 82303  81.9712 165.8601 0073185 253.2508 231.0954 13.32815781368181
UNKNOWN                 
1 82311U          22363.04862942  .00000531  00000+0  83162-3 0  9997
2 82311  99.5058  87.4655 0113101 144.9985 215.8652 13.52424763404267
UNKNOWN                 
1 82314U          22364.32852110  .00060999  00000+0  16108-2 0  9997
2 82314  99.2296 195.2010 0132823 130.6924 230.5941 15.29679721379461
UNKNOWN                 
1 82322U          22361.67439861  .00011769  00000+0  25794-2 0  9997
2 82322  98.5597  82.1473 0073619 157.8539 202.5866 14.56115014407391
UNKNOWN                 
1 82363U          22363.68829312  .00000319  00000+0  60692-3 0  9995
2 82363  66.9399 341.4863 0457423 134.0724 229.8943 13.14097611148408
UNKNOWN                 
1 82369U 99025    22362.85560595  .00000198  00000+0  16703-3 0  9998
2 82369  98.9893  30.4968 0085107  77.0786 283.9866 13.97184430406329
UNKNOWN                 
1 82381U          22363.99123414  .00005568  00000+0  17084-2 0  9996
2 82381  98.4699 198.6234 0016868 228.7506 131.2231 14.41949911353693
UNKNOWN                 
1 82383U          22364.43755718  .00048644  00000+0  47694-2 0  9998
2 82383  98.2606  70.4929 0004913 143.1500 217.0056 14.92025312387120
UNKNOWN                 
1 82402U          22364.45087796  .00003160  00000+0  34937-3 0  9997
2 82402  86.6687 254.4314 0013123  86.5166 273.7560 14.87019299293446
UNKNOWN                 
1 82410U          22363.73536747  .00000138  00000+0  21508-3 0  9993
2 82410  66.6584  46.6853 0060012  21.1255 339.2274 13.76253253438203
UNKNOWN                 
1 82428U          22364.18943627  .00050482  00000+0  33306-1 0  9995
2 82428  63.1679 281.4966 0134610  35.0640 325.9180 13.97012579270648
UNKNOWN                 
1 82432U 93036    22357.09338803  .00001347  00000+0  33667-3 0  9995
2 82432  74.0088 238.5303 0063667 305.8496  53.6761 14.51336817325035
UNKNOWN                 
1 82448U          22364.10477913  .00002591  00000+0  28610-3 0  9991
2 82448  85.8773  47.1941 0012300 142.8128 217.3950 14.86982961275953
UNKNOWN                 
1 82453U          22363.60187593  .00000026  00000+0  51936-3 0  9991
2 82453 102.0238 311.6845 0094444  43.4600 317.3859 12.39563468412347
UNKNOWN                 
1 82458U          22363.95058861  .00002160  00000+0  12239-2 0  9992
2 82458  66.5106  84.6170 0064410  10.2868 349.9520 14.10928232457245
UNKNOWN                 
1 82464U          22363.21239878  .00009909  00000+0  26204-2 0  9992
2 82464  70.9952 301.8576 0077910 344.2156  82.3424 14.47209301477739
UNKNOWN                 
1 82475U          22364.34385177  .00002406  00000+0  14214-2 0  9996
2 82475  99.1099  47.4061 0105731 226.9363 132.2916 14.06023625394330
UNKNOWN                 
1 82484U          22364.11897376 -.00000013  00000+0  42492-4 0  9994
2 82484  99.4875  58.9082 0045388  43.7743 316.6979 13.55199512444507
UNKNOWN                 
1 82494U 93036    22360.14504992  .00003553  00000+0  88666-3 0  9997
2 82494  74.0225 308.6322 0011668 322.1934  37.8406 14.51922870325073
UNKNOWN                 
1 82500U          22364.54300126  .00003131  00000+0  17666-2 0  9998
2 82500  70.9728 100.2248 0145716 298.5006  60.1501 14.05820477466783
UNKNOWN                 
1 82517U          22364.53516677  .00018309  00000+0  46411-2 0  9998
2 82517  86.3908 182.3184 0018590 222.8464 137.1293 14.50651640267426
UNKNOWN                 
1 82524U          22364.15295720  .00003926  00000+0  16941-2 0  9991
2 82524  73.3041  56.3116 0175546 228.6239 162.5550 14.16936961423406
UNKNOWN                 
1 82529U          22364.10054578  .00000159  00000+0  31974-3 0  9994
2 82529  99.7968 106.5648 0243461 346.4849 135.4272 13.38905283445272
UNKNOWN                 
1 82545U          22359.10418989 -.00000052  00000+0 -26775-3 0  9993
2 82545  64.8812 128.1555 0169323 142.6386 218.6455 11.30786167316388
UNKNOWN                 
1 82560U          22359.07704998  .00000933  00000+0  85168-3 0  9991
2 82560 100.0241 209.7858 0010653 277.6683 234.5905 13.86169695461502
UNKNOWN                 
1 82561U          22363.46697777  .00003701  00000+0  98834-3 0  9996
2 82561  63.1104  71.0971 0519204  18.4450 355.7728 13.91485895990106
UNKNOWN                 
1 82576U          22361.06204141  .00002028  00000+0  13022-2 0  9991
2 82576  99.2249  38.0631 0119754 110.7178 250.6869 14.00918549 82364
UNKNOWN                 
1 82597U          22363.65361714  .00001052  00000+0  42357-3 0  9991
2 82597  66.7734  93.2397 0100396  26.8759 333.7490 14.29180696474443
UNKNOWN                 
1 82616U          22364.43036553  .00063223  00000+0  53977-2 0  9997
2 82616  97.2910  60.7209 0069363 253.9996 105.3578 14.95537764406108
UNKNOWN                 
1 82617U          22363.96211566  .00000598  00000+0  17150-3 0  9994
2 82617  74.0288 103.8331 0041762 312.5940  47.1698 14.46637719480687
UNKNOWN                 
1 82627U          22359.27619830  .00000394  00000+0  10365-2 0  9994
2 82627  82.4755 299.7786 0010280 299.5979 214.5836 13.14156240436400
UNKNOWN                 
1 82642U          22364.46849034  .00002015  00000+0  12713-2 0  9990
2 82642  99.0005 271.3745 0145494 355.6034   4.3843 14.00251319464876
UNKNOWN                 
1 82683U 99057    22363.82869450  .00001034  00000+0  44125-3 0  9991
2 82683  98.1470 141.0083 0225012 299.4760  58.4137 14.14400992309446
UNKNOWN                 
1 82693U          22364.36173968  .00001995  00000+0  26576-2 0  9999
2 82693 100.5284 220.7654 0042806 174.9356 185.2223 13.61537316406606
UNKNOWN                 
1 82698U          22360.68303251  .00001072  00000+0  71434-3 0  9995
2 82698  61.6125 151.8010 0712195 255.9656  96.1225 13.22398271394903
UNKNOWN                 
1 82708U          22359.51920028  .00000466  00000+0  20303-2 0  9998
2 82708 102.1465  86.1933 0063189 307.7132  51.8240 12.87668727383947
UNKNOWN                 
1 82729U          22364.56665020  .00000044  00000+0  28465-3 0  9990
2 82729  67.9543 207.8516 0838054  27.9498 336.4001 12.16461290404007
UNKNOWN                 
1 82737U          22364.34195238  .00022988  00000+0  26208-1 0  9996
2 82737 102.8452 208.9765 0324540 353.3965   6.2934 13.49673788399720
UNKNOWN                 
1 82739U          22363.51109628  .00000708  00000+0  67065-3 0  9998
2 82739  99.0244 190.5425 0181572 293.5247  91.1700 13.77246681457279
UNKNOWN                 
1 82741U          22364.41210716  .00002111  00000+0  25996-2 0  9998
2 82741 102.8625  45.8970 0213082 146.5759 214.9026 13.57993317450296
UNKNOWN                 
1 82755U          22364.28685857  .00072867  00000+0  73347-2 0  9998
2 82755  99.8017 196.8343 0003195 321.9107  38.1878 14.90815189485972
UNKNOWN                 
1 82783U          22362.01116835  .00001012  00000+0  30053-2 0  9994
2 82783  90.3074   5.7244 0022399 138.2196 222.0645 13.07264170363060
UNKNOWN                 
1 82785U          22364.28017429  .00027516  00000+0  34413-2 0  9997
2 82785  63.1193 247.8844 0386905  59.0943 304.7569 14.41162591475153
UNKNOWN                 
1 82798U          22363.21364791  .00001426  00000+0  72163-3 0  9997
2 82798  82.9532 331.1538 0032962 166.5553 253.5525 14.15245308159287
UNKNOWN                 
1 82820U          22363.31199000  .00001701  00000+0  76894-3 0  9994
2 82820  99.8071  19.6220 0059653 182.8756 177.2084 14.22718343471568
UNKNOWN                 
1 82829U          22363.99745840  .00000048  00000+0  24951-2 0  9995
2 82829  65.1009 350.1023 0174112 215.4521 175.9426 11.28923779364299
UNKNOWN                 
1 82854U          22364.22870487  .00001261  00000+0  10829-2 0  9993
2 82854  82.6923 186.1408 0131168  84.1159 277.4935 13.82160551930882
UNKNOWN                 
1 82873U          22363.12598835  .00002142  00000+0  11751-2 0  9990
2 82873  99.9919 104.4193 0044203  17.6585 342.6107 14.12584974468188
UNKNOWN                 
1 82875U          22357.23702606  .00000553  00000+0  16093-3 0  9999
2 82875  98.6062 359.6429 0392486 151.4866 210.8402 14.11324328391159
UNKNOWN                 
1 82893U          22363.52704260  .00003748  00000+0  21374-2 0  9992
2 82893  98.9692  90.0218 0036009 244.1177 115.6278 14.09981570270877
UNKNOWN                 
1 82912U          22364.29777407  .00001026  00000+0  50257-3 0  9992
2 82912  65.8391 115.2267 0812298  38.9809 326.6991 13.16487707436785
UNKNOWN                 
1 82915U          22358.81023605  .00041289  00000+0  42825-2 0  9996
2 82915  74.0054 189.1914 0023020 126.0359 234.2960 14.89579728323210
UNKNOWN                 
1 82959U          22362.02709376  .00000684  00000+0  41024-3 0  9993
2 82959 100.1073  20.5834 0052052 319.0366  40.6895 14.10440931391272
UNKNOWN                 
1 82961U          22363.89425718  .00009219  00000+0  17740-1 0  9996
2 82961  99.9171 219.8305 0518362 323.5689  33.1157 12.95469336414640
